CCSDS_OMM_VERS = 2.0
CREATION_DATE  = 
ORIGINATOR     = 

OBJECT_NAME    = STARLINK-36565
OBJECT_ID      = 2026-014N
CENTER_NAME    = EARTH
REF_FRAME      = TEME
TIME_SYSTEM    = UTC
MEAN_ELEMENT_THEORY = SGP/SGP4

EPOCH          = 2026-02-19T03:16:44.998752
MEAN_MOTION    = 15.75289468
ECCENTRICITY   = .00021384
INCLINATION    = 97.2825
RA_OF_ASC_NODE = 294.1680
ARG_OF_PERICENTER = 88.2700
MEAN_ANOMALY   = 271.8810

EPHEMERIS_TYPE = 0
CLASSIFICATION_TYPE = U
NORAD_CAT_ID   = 67544
ELEMENT_SET_NO = 999
REV_AT_EPOCH   = 565
BSTAR          = .19705825E-2
MEAN_MOTION_DOT = .305886E-2
MEAN_MOTION_DDOT = 0

CCSDS_OMM_VERS = 2.0
CREATION_DATE  = 
ORIGINATOR     = 

OBJECT_NAME    = STARLINK-36583
OBJECT_ID      = 2026-014P
CENTER_NAME    = EARTH
REF_FRAME      = TEME
TIME_SYSTEM    = UTC
MEAN_ELEMENT_THEORY = SGP/SGP4

EPOCH          = 2026-02-18T20:13:54.207264
MEAN_MOTION    = 15.75293469
ECCENTRICITY   = .00011313
INCLINATION    = 97.2842
RA_OF_ASC_NODE = 293.8012
ARG_OF_PERICENTER = 89.7240
MEAN_ANOMALY   = 270.4154

EPHEMERIS_TYPE = 0
CLASSIFICATION_TYPE = U
NORAD_CAT_ID   = 67545
ELEMENT_SET_NO = 999
REV_AT_EPOCH   = 560
BSTAR          = .15369475E-2
MEAN_MOTION_DOT = .236639E-2
MEAN_MOTION_DDOT = 0

CCSDS_OMM_VERS = 2.0
CREATION_DATE  = 
ORIGINATOR     = 

OBJECT_NAME    = STARLINK-36580
OBJECT_ID      = 2026-014Q
CENTER_NAME    = EARTH
REF_FRAME      = TEME
TIME_SYSTEM    = UTC
MEAN_ELEMENT_THEORY = SGP/SGP4

EPOCH          = 2026-02-19T03:25:23.843712
MEAN_MOTION    = 15.75343135
ECCENTRICITY   = .00014534
INCLINATION    = 97.2832
RA_OF_ASC_NODE = 294.1595
ARG_OF_PERICENTER = 60.1929
MEAN_ANOMALY   = 299.9481

EPHEMERIS_TYPE = 0
CLASSIFICATION_TYPE = U
NORAD_CAT_ID   = 67546
ELEMENT_SET_NO = 999
REV_AT_EPOCH   = 565
BSTAR          = .23069128E-2
MEAN_MOTION_DOT = .361313E-2
MEAN_MOTION_DDOT = 0

CCSDS_OMM_VERS = 2.0
CREATION_DATE  = 
ORIGINATOR     = 

OBJECT_NAME    = STARLINK-36584
OBJECT_ID      = 2026-014R
CENTER_NAME    = EARTH
REF_FRAME      = TEME
TIME_SYSTEM    = UTC
MEAN_ELEMENT_THEORY = SGP/SGP4

EPOCH          = 2026-02-19T12:00:02.998944
MEAN_MOTION    = 15.75137166
ECCENTRICITY   = .0001519
INCLINATION    = 97.2842
RA_OF_ASC_NODE = 294.5760
ARG_OF_PERICENTER = 90.0137
MEAN_ANOMALY   = 235.4571

EPHEMERIS_TYPE = 0
CLASSIFICATION_TYPE = U
NORAD_CAT_ID   = 67547
ELEMENT_SET_NO = 999
REV_AT_EPOCH   = 576
BSTAR          = .56711E-3
MEAN_MOTION_DOT = .85112E-3
MEAN_MOTION_DDOT = 0

CCSDS_OMM_VERS = 2.0
CREATION_DATE  = 
ORIGINATOR     = 

OBJECT_NAME    = STARLINK-36586
OBJECT_ID      = 2026-014S
CENTER_NAME    = EARTH
REF_FRAME      = TEME
TIME_SYSTEM    = UTC
MEAN_ELEMENT_THEORY = SGP/SGP4

EPOCH          = 2026-02-19T11:47:05.791200
MEAN_MOTION    = 15.81166743
ECCENTRICITY   = .0003148
INCLINATION    = 97.2835
RA_OF_ASC_NODE = 294.6058
ARG_OF_PERICENTER = 28.7924
MEAN_ANOMALY   = 331.3517

EPHEMERIS_TYPE = 0
CLASSIFICATION_TYPE = U
NORAD_CAT_ID   = 67548
ELEMENT_SET_NO = 999
REV_AT_EPOCH   = 571
BSTAR          = .23089E-2
MEAN_MOTION_DOT = .474584E-2
MEAN_MOTION_DDOT = 0

CCSDS_OMM_VERS = 2.0
CREATION_DATE  = 
ORIGINATOR     = 

OBJECT_NAME    = STARLINK-36564
OBJECT_ID      = 2026-014T
CENTER_NAME    = EARTH
REF_FRAME      = TEME
TIME_SYSTEM    = UTC
MEAN_ELEMENT_THEORY = SGP/SGP4

EPOCH          = 2026-02-19T03:37:05.053152
MEAN_MOTION    = 15.75261063
ECCENTRICITY   = .0002257
INCLINATION    = 97.2840
RA_OF_ASC_NODE = 294.1477
ARG_OF_PERICENTER = 73.3275
MEAN_ANOMALY   = 286.8238

EPHEMERIS_TYPE = 0
CLASSIFICATION_TYPE = U
NORAD_CAT_ID   = 67549
ELEMENT_SET_NO = 999
REV_AT_EPOCH   = 559
BSTAR          = .14255E-2
MEAN_MOTION_DOT = .218704E-2
MEAN_MOTION_DDOT = 0

CCSDS_OMM_VERS = 2.0
CREATION_DATE  = 
ORIGINATOR     = 

OBJECT_NAME    = STARLINK-36563
OBJECT_ID      = 2026-014U
CENTER_NAME    = EARTH
REF_FRAME      = TEME
TIME_SYSTEM    = UTC
MEAN_ELEMENT_THEORY = SGP/SGP4

EPOCH          = 2026-02-19T03:30:58.899456
MEAN_MOTION    = 15.75249107
ECCENTRICITY   = .0001757
INCLINATION    = 97.2839
RA_OF_ASC_NODE = 294.1538
ARG_OF_PERICENTER = 115.3810
MEAN_ANOMALY   = 244.7637

EPHEMERIS_TYPE = 0
CLASSIFICATION_TYPE = U
NORAD_CAT_ID   = 67550
ELEMENT_SET_NO = 999
REV_AT_EPOCH   = 565
BSTAR          = .13418E-2
MEAN_MOTION_DOT = .205421E-2
MEAN_MOTION_DDOT = 0

CCSDS_OMM_VERS = 2.0
CREATION_DATE  = 
ORIGINATOR     = 

OBJECT_NAME    = STARLINK-36566
OBJECT_ID      = 2026-014V
CENTER_NAME    = EARTH
REF_FRAME      = TEME
TIME_SYSTEM    = UTC
MEAN_ELEMENT_THEORY = SGP/SGP4

EPOCH          = 2026-02-19T03:27:56.343168
MEAN_MOTION    = 15.75349336
ECCENTRICITY   = .00019971
INCLINATION    = 97.2829
RA_OF_ASC_NODE = 294.1559
ARG_OF_PERICENTER = 33.3094
MEAN_ANOMALY   = 326.8297

EPHEMERIS_TYPE = 0
CLASSIFICATION_TYPE = U
NORAD_CAT_ID   = 67551
ELEMENT_SET_NO = 999
REV_AT_EPOCH   = 564
BSTAR          = .22495397E-2
MEAN_MOTION_DOT = .352027E-2
MEAN_MOTION_DDOT = 0

CCSDS_OMM_VERS = 2.0
CREATION_DATE  = 
ORIGINATOR     = 

OBJECT_NAME    = STARLINK-36567
OBJECT_ID      = 2026-014W
CENTER_NAME    = EARTH
REF_FRAME      = TEME
TIME_SYSTEM    = UTC
MEAN_ELEMENT_THEORY = SGP/SGP4

EPOCH          = 2026-02-19T03:40:07.774464
MEAN_MOTION    = 15.75239600
ECCENTRICITY   = .000111
INCLINATION    = 97.2839
RA_OF_ASC_NODE = 294.1387
ARG_OF_PERICENTER = 59.8387
MEAN_ANOMALY   = 300.2988

EPHEMERIS_TYPE = 0
CLASSIFICATION_TYPE = U
NORAD_CAT_ID   = 67552
ELEMENT_SET_NO = 999
REV_AT_EPOCH   = 564
BSTAR          = .12837E-2
MEAN_MOTION_DOT = .196223E-2
MEAN_MOTION_DDOT = 0

CCSDS_OMM_VERS = 2.0
CREATION_DATE  = 
ORIGINATOR     = 

OBJECT_NAME    = STARLINK-36569
OBJECT_ID      = 2026-014X
CENTER_NAME    = EARTH
REF_FRAME      = TEME
TIME_SYSTEM    = UTC
MEAN_ELEMENT_THEORY = SGP/SGP4

EPOCH          = 2026-02-19T03:02:31.482528
MEAN_MOTION    = 15.75298141
ECCENTRICITY   = .00013291
INCLINATION    = 97.2836
RA_OF_ASC_NODE = 294.1770
ARG_OF_PERICENTER = 50.5409
MEAN_ANOMALY   = 309.5974

EPHEMERIS_TYPE = 0
CLASSIFICATION_TYPE = U
NORAD_CAT_ID   = 67553
ELEMENT_SET_NO = 999
REV_AT_EPOCH   = 564
BSTAR          = .1436807E-2
MEAN_MOTION_DOT = .220844E-2
MEAN_MOTION_DDOT = 0

CCSDS_OMM_VERS = 2.0
CREATION_DATE  = 
ORIGINATOR     = 

OBJECT_NAME    = STARLINK-36395
OBJECT_ID      = 2026-014Y
CENTER_NAME    = EARTH
REF_FRAME      = TEME
TIME_SYSTEM    = UTC
MEAN_ELEMENT_THEORY = SGP/SGP4

EPOCH          = 2026-02-19T03:31:59.798496
MEAN_MOTION    = 15.75263388
ECCENTRICITY   = .0001619
INCLINATION    = 97.2843
RA_OF_ASC_NODE = 294.1505
ARG_OF_PERICENTER = 112.1480
MEAN_ANOMALY   = 247.9958

EPHEMERIS_TYPE = 0
CLASSIFICATION_TYPE = U
NORAD_CAT_ID   = 67554
ELEMENT_SET_NO = 999
REV_AT_EPOCH   = 564
BSTAR          = .1685E-2
MEAN_MOTION_DOT = .259818E-2
MEAN_MOTION_DDOT = 0

CCSDS_OMM_VERS = 2.0
CREATION_DATE  = 
ORIGINATOR     = 

OBJECT_NAME    = STARLINK-36559
OBJECT_ID      = 2026-014Z
CENTER_NAME    = EARTH
REF_FRAME      = TEME
TIME_SYSTEM    = UTC
MEAN_ELEMENT_THEORY = SGP/SGP4

EPOCH          = 2026-02-19T11:11:26.090880
MEAN_MOTION    = 15.75250299
ECCENTRICITY   = .0001723
INCLINATION    = 97.2841
RA_OF_ASC_NODE = 294.4799
ARG_OF_PERICENTER = 101.3650
MEAN_ANOMALY   = 258.7809

EPHEMERIS_TYPE = 0
CLASSIFICATION_TYPE = U
NORAD_CAT_ID   = 67555
ELEMENT_SET_NO = 999
REV_AT_EPOCH   = 569
BSTAR          = .19135E-2
MEAN_MOTION_DOT = .296183E-2
MEAN_MOTION_DDOT = 0

